{"fetched_at":"2026-03-29T16:36:15Z","count":15609,"tles":[{"name":"STARLINK-3261","line1":"1 50193U 21125AP  26087.58943123  .00003651  00000+0  24737-3 0  9997","line2":"2 50193  53.2158 154.2772 0001593  79.7992 280.3180 15.08837539239637","category":"Starlink"}]}