{
  "norad_id": 50193,
  "name": "STARLINK-3261",
  "history": [
    {
      "epoch": "2026-03-28T14:08:46.858272Z",
      "apogee_km": 540.8529308110546,
      "perigee_km": 538.6488917225261,
      "latitude_deg": 2.2766624042389925e-05,
      "longitude_deg": 116.07426839236523,
      "height_km": 540.4509894922691,
      "semi_major_axis_km": 6917.88791126679,
      "eccentricity": 0.0001593,
      "inclination_deg": 53.2158,
      "raan_deg": 154.2772,
      "arg_perigee_deg": 79.7992,
      "mean_anomaly_deg": 280.318,
      "mean_motion_rev_day": 15.08837539
    }
  ]
}